HYPERFIELD-1A           
1 60562U 24149CY  26068.76488211  .00008569  00000+0  30052-3 0  9998
2 60562  97.3842 149.5066 0003865 313.7844  46.3076 15.29681349 86836
STARLINK-32648          
1 62301U 24239A   26068.57472923  .00033030  00000+0  11225-2 0  9994
2 62301  53.1601 181.8633 0002139  27.6756 332.4358 15.30196470 69546
